COMMENT,ORIGINATOR,NORAD_CAT_ID,OBJECT_NAME,OBJECT_TYPE,CLASSIFICATION_TYPE,INTLDES,EPOCH,EPOCH_MICROSECONDS,MEAN_MOTION,ECCENTRICITY,INCLINATION,RA_OF_ASC_NODE,ARG_OF_PERICENTER,MEAN_ANOMALY,EPHEMERIS_TYPE,ELEMENT_SET_NO,REV_AT_EPOCH,BSTAR,MEAN_MOTION_DOT,MEAN_MOTION_DDOT,FILE,TLE_LINE0,TLE_LINE1,TLE_LINE2,OBJECT_ID,OBJECT_NUMBER,SEMIMAJOR_AXIS,PERIOD,APOGEE,PERIGEE,DECAYED
"GENERATED VIA SPACETRACK.ORG API","18 SPCS","48890","SPACEBEE-104","PAYLOAD","U","21059M","2023-10-21 08:23:53","849184","15.45101472","0.0004011","97.6069","75.6483","209.4232","150.6791","0","999","12878","0.0020608","0.00098533","0","4046008","0 SPACEBEE-104","1 48890U 21059M   23294.34992881  .00098533  00000-0  20608-2 0  9996","2 48890  97.6069  75.6483 0004011 209.4232 150.6791 15.45101472128784","2021-059M","48890","6809.217","93.198","433.813","428.351","0"
"GENERATED VIA SPACETRACK.ORG API","18 SPCS","48890","SPACEBEE-104","PAYLOAD","U","21059M","2023-10-21 22:23:11","589792","15.45205427","0.0003941","97.6063","76.2586","207.5938","152.5102","0","999","12887","0.0013841","0.00066105","0","4046563","0 SPACEBEE-104","1 48890U 21059M   23294.93277303  .00066105  00000-0  13841-2 0  9997","2 48890  97.6063  76.2586 0003941 207.5938 152.5102 15.45205427128874","2021-059M","48890","6808.912","93.191","433.460","428.093","0"
"GENERATED VIA SPACETRACK.ORG API","18 SPCS","48890","SPACEBEE-104","PAYLOAD","U","21059M","2023-10-22 04:36:11","751552","15.45243153","0.0003986","97.6067","76.5296","206.2827","153.822","0","999","12891","0.0011788","0.00056288","0","4046786","0 SPACEBEE-104","1 48890U 21059M   23295.19180268  .00056288  00000-0  11788-2 0  9998","2 48890  97.6067  76.5296 0003986 206.2827 153.8220 15.45243153128919","2021-059M","48890","6808.801","93.189","433.380","427.952","0"
"GENERATED VIA SPACETRACK.ORG API","18 SPCS","48890","SPACEBEE-104","PAYLOAD","U","21059M","2023-10-22 09:15:56","468736","15.45277491","0.0003991","97.6064","76.7329","205.9958","154.1091","0","999","12894","0.0011973","0.00057247","0","4047923","0 SPACEBEE-104","1 48890U 21059M   23295.38607024  .00057247  00000-0  11973-2 0  9995","2 48890  97.6064  76.7329 0003991 205.9958 154.1091 15.45277491128947","2021-059M","48890","6808.700","93.187","433.282","427.847","0"
"GENERATED VIA SPACETRACK.ORG API","18 SPCS","48890","SPACEBEE-104","PAYLOAD","U","21059M","2023-10-22 15:28:55","543584","15.45315147","0.0003914","97.6063","77.0049","205.1277","154.9782","0","999","12898","0.0012304","0.00058919","0","4048356","0 SPACEBEE-104","1 48890U 21059M   23295.64508731  .00058919  00000-0  12304-2 0  9995","2 48890  97.6063  77.0049 0003914 205.1277 154.9782 15.45315147128980","2021-059M","48890","6808.589","93.185","433.119","427.789","0"
"GENERATED VIA SPACETRACK.ORG API","18 SPCS","48890","SPACEBEE-104","PAYLOAD","U","21059M","2023-10-22 21:41:54","91392","15.45362845","0.0003875","97.606","77.2763","205.1933","154.9126","0","999","12902","0.0016791","0.00080796","0","4048538","0 SPACEBEE-104","1 48890U 21059M   23295.90409828  .00080796  00000-0  16791-2 0  9993","2 48890  97.6060  77.2763 0003875 205.1933 154.9126 15.45362845129022","2021-059M","48890","6808.449","93.182","432.952","427.676","0"
"GENERATED VIA SPACETRACK.ORG API","18 SPCS","48890","SPACEBEE-104","PAYLOAD","U","21059M","2023-10-22 21:41:54","91392","15.45362845","0.0003875","97.606","77.2763","205.1933","154.9126","0","999","12902","0.0016791","0.00080796","0","4049069","0 SPACEBEE-104","1 48890U 21059M   23295.90409828  .00080796  00000-0  16791-2 0  9993","2 48890  97.6060  77.2763 0003875 205.1933 154.9126 15.45362845129022","2021-059M","48890","6808.449","93.182","432.952","427.676","0"
"GENERATED VIA SPACETRACK.ORG API","18 SPCS","48890","SPACEBEE-104","PAYLOAD","U","21059M","2023-10-23 14:47:32","213184","15.45457179","0.000386","97.6061","78.0224","202.4915","157.6164","0","999","12913","0.0013316","0.00064125","0","4049977","0 SPACEBEE-104","1 48890U 21059M   23296.61634506  .00064125  00000-0  13316-2 0  9993","2 48890  97.6061  78.0224 0003860 202.4915 157.6164 15.45457179129137","2021-059M","48890","6808.172","93.176","432.665","427.409","0"
"GENERATED VIA SPACETRACK.ORG API","18 SPCS","48890","SPACEBEE-104","PAYLOAD","U","21059M","2023-10-23 22:33:42","846336","15.45507574","0.0003798","97.6061","78.3615","201.8808","158.2278","0","999","12918","0.0015889","0.00076789","0","4050204","0 SPACEBEE-104","1 48890U 21059M   23296.94007924  .00076789  00000-0  15889-2 0  9993","2 48890  97.6061  78.3615 0003798 201.8808 158.2278 15.45507574129181","2021-059M","48890","6808.024","93.173","432.475","427.303","0"
"GENERATED VIA SPACETRACK.ORG API","18 SPCS","48890","SPACEBEE-104","PAYLOAD","U","21059M","2023-10-24 09:26:20","320800","15.45568788","0.0003842","97.6063","78.8362","200.1147","159.9951","0","999","12925","0.0013022","0.00062936","0","4051402","0 SPACEBEE-104","1 48890U 21059M   23297.39329075  .00062936  00000-0  13022-2 0  9993","2 48890  97.6063  78.8362 0003842 200.1147 159.9951 15.45568788129253","2021-059M","48890","6807.844","93.170","432.325","427.094","0"
"GENERATED VIA SPACETRACK.ORG API","18 SPCS","48890","SPACEBEE-104","PAYLOAD","U","21059M","2023-10-24 09:26:20","320800","15.45568788","0.0003842","97.6063","78.8362","200.1147","159.9951","0","999","12925","0.0013022","0.00062936","0","4051588","0 SPACEBEE-104","1 48890U 21059M   23297.39329075  .00062936  00000-0  13022-2 0  9993","2 48890  97.6063  78.8362 0003842 200.1147 159.9951 15.45568788129253","2021-059M","48890","6807.844","93.170","432.325","427.094","0"
"GENERATED VIA SPACETRACK.ORG API","18 SPCS","48890","SPACEBEE-104","PAYLOAD","U","21059M","2023-10-25 21:10:30","198144","15.45762796","0.0003615","97.6063","80.3966","195.6719","164.4418","0","999","12948","0.001485","0.00072346","0","4052237","0 SPACEBEE-104","1 48890U 21059M   23298.88229396  .00072346  00000-0  14850-2 0  9999","2 48890  97.6063  80.3966 0003615 195.6719 164.4418 15.45762796129481","2021-059M","48890","6807.275","93.158","431.600","426.679","0"
"GENERATED VIA SPACETRACK.ORG API","18 SPCS","48890","SPACEBEE-104","PAYLOAD","U","21059M","2023-10-25 21:10:30","198144","15.45762796","0.0003615","97.6063","80.3966","195.6719","164.4418","0","999","12948","0.001485","0.00072346","0","4052988","0 SPACEBEE-104","1 48890U 21059M   23298.88229396  .00072346  00000-0  14850-2 0  9999","2 48890  97.6063  80.3966 0003615 195.6719 164.4418 15.45762796129481","2021-059M","48890","6807.275","93.158","431.600","426.679","0"
"GENERATED VIA SPACETRACK.ORG API","18 SPCS","48890","SPACEBEE-104","PAYLOAD","U","21059M","2023-10-26 08:03:01","39680","15.45836901","0.000369","97.6064","80.8716","193.959","166.1557","0","999","12955","0.0015896","0.00077698","0","4054082","0 SPACEBEE-104","1 48890U 21059M   23299.33542870  .00077698  00000-0  15896-2 0  9991","2 48890  97.6064  80.8716 0003690 193.9590 166.1557 15.45836901129552","2021-059M","48890","6807.057","93.153","431.434","426.410","0"
"GENERATED VIA SPACETRACK.ORG API","18 SPCS","48890","SPACEBEE-104","PAYLOAD","U","21059M","2023-10-26 22:01:55","66080","15.45941315","0.0003562","97.6063","81.4828","191.5872","168.5295","0","999","12964","0.0018562","0.00091226","0","4054549","0 SPACEBEE-104","1 48890U 21059M   23299.91799845  .00091226  00000-0  18562-2 0  9997","2 48890  97.6063  81.4828 0003562 191.5872 168.5295 15.45941315129648","2021-059M","48890","6806.751","93.147","431.040","426.191","0"
"GENERATED VIA SPACETRACK.ORG API","18 SPCS","48890","SPACEBEE-104","PAYLOAD","U","21059M","2023-10-27 08:54:21","335328","15.46027281","0.0003572","97.6064","81.9578","189.7598","170.3582","0","999","12971","0.0019437","0.00095869","0","4055819","0 SPACEBEE-104","1 48890U 21059M   23300.37108027  .00095869  00000-0  19437-2 0  9995","2 48890  97.6064  81.9578 0003572 189.7598 170.3582 15.46027281129717","2021-059M","48890","6806.498","93.142","430.795","425.932","0"
"GENERATED VIA SPACETRACK.ORG API","18 SPCS","48890","SPACEBEE-104","PAYLOAD","U","21059M","2023-10-27 21:19:57","398592","15.46112994","0.0003414","97.6065","82.5017","188.4498","171.6694","0","999","12979","0.0017092","0.00084413","0","4056385","0 SPACEBEE-104","1 48890U 21059M   23300.88885878  .00084413  00000-0  17092-2 0  9995","2 48890  97.6065  82.5017 0003414 188.4498 171.6694 15.46112994129795","2021-059M","48890","6806.247","93.137","430.435","425.788","0"
"GENERATED VIA SPACETRACK.ORG API","18 SPCS","48890","SPACEBEE-104","PAYLOAD","U","21059M","2023-10-27 22:53:09","203136","15.46125577","0.0003417","97.6065","82.5695","188.4544","171.6647","0","999","12980","0.0017252","0.0008525","0","4056562","0 SPACEBEE-104","1 48890U 21059M   23300.95357874  .00085250  00000-0  17252-2 0  9991","2 48890  97.6065  82.5695 0003417 188.4544 171.6647 15.46125577129803","2021-059M","48890","6806.210","93.136","430.400","425.749","0"
"GENERATED VIA SPACETRACK.ORG API","18 SPCS","48890","SPACEBEE-104","PAYLOAD","U","21059M","2023-10-28 08:12:19","335744","15.46187563","0.0003457","97.6068","82.9765","186.0296","174.0912","0","999","12986","0.0014533","0.00071829","0","4057688","0 SPACEBEE-104","1 48890U 21059M   23301.34189046  .00071829  00000-0  14533-2 0  9995","2 48890  97.6068  82.9765 0003457 186.0296 174.0912 15.46187563129861","2021-059M","48890","6806.028","93.132","430.246","425.540","0"
"GENERATED VIA SPACETRACK.ORG API","18 SPCS","48890","SPACEBEE-104","PAYLOAD","U","21059M","2023-10-28 08:12:19","335744","15.46187563","0.0003457","97.6068","82.9765","186.0296","174.0912","0","999","12986","0.0014533","0.00071829","0","4058125","0 SPACEBEE-104","1 48890U 21059M   23301.34189046  .00071829  00000-0  14533-2 0  9995","2 48890  97.6068  82.9765 0003457 186.0296 174.0912 15.46187563129861","2021-059M","48890","6806.028","93.132","430.246","425.540","0"
